1 20253U 89077A   26198.29278829 -.00000378  00000-0  00000+0 0  9994
2 20253  12.4146 350.9771 0002438  95.0922  79.9424  1.00282439260864
1 20776U 90079A   26198.16074995 -.00000215  00000-0  00000-0 0  9993
2 20776  13.3285 349.6256 0002817 132.9021  49.3902  0.98579636   333
1 22787U 93056A   26198.62993419  .00000113  00000-0  00000+0 0  9992
2 22787  11.9054   3.3817 0002311   6.3505 181.0959  1.00271595118852
1 23467U 95003A   26198.23074036 -.00000032  00000-0  00000+0 0  9995
2 23467   9.6777  13.0020 0003105 103.1843  74.3387  1.00276688115259
1 23967U 96042A   26198.40017818 -.00000313  00000-0  00000+0 0  9990
2 23967  11.1452  16.9108 0006531 117.0497 253.6493  1.00202571109798
1 25544U 98067A   26198.57280181  .00003563  00000-0  72724-4 0  9991
2 25544  51.6316 149.7201 0006795 306.9083  53.1282 15.49033131576463
1 25967U 99063A   26197.84559152 -.00000201  00000-0  00000-0 0  9994
2 25967   9.8571  27.0495 0001675 123.7182  65.3754  1.00272333 97648
1 27168U 02001A   26198.20040689  .00000084  00000-0  00000+0 0  9993
2 27168  11.2149  21.7207 0099276   9.0101 355.4438  1.00267260 33267
1 27607U 02058C   26198.56666565  .00000339  00000-0  58139-4 0  9993
2 27607  64.5519  34.9873 0074455 256.8352 102.4439 14.83100826268961
1 28117U 03057A   26198.56802747 -.00000116  00000-0  00000+0 0  9997
2 28117   8.9508  33.6568 0002760  99.0662  82.7130  1.00270747 82750
1 28899U 05044A   26198.60854323 -.00000272  00000-0  00000+0 0  9997
2 28899   5.1337  43.6757 0002821  60.0544 194.2621  1.00271469 75828
1 30794U 07007B   26198.64319036 -.00000283  00000-0  00000+0 0  9998
2 30794   5.3748  73.3656 0003417  44.8500 143.9891  1.00273821 71005
1 32294U 07056B   26198.35947464  .00000128  00000-0  00000+0 0  9996
2 32294   5.3258  73.1405 0003705  46.4360 330.1487  1.00275705 68505
1 35943U 09054B   26198.66391215  .00000016  00000-0  00000+0 0  9997
2 35943   0.0645 164.9027 0002746 311.8331 120.7536  1.00270712 61617
1 36582U 10021B   26198.73457501  .00000079  00000-0  00000+0 0  9991
2 36582   0.0436 175.4477 0002197 308.5216  89.2545  1.00268039 59262
1 38098U 12011A   26198.63859700 -.00000068  00000-0  00000+0 0  9991
2 38098   0.0198  51.8095 0001840  75.5737 110.0623  1.00271947  7497
1 39034U 12075A   26198.68794742  .00000090  00000-0  00000+0 0  9995
2 39034   0.0681   3.7007 0003502 121.2439 110.9536  1.00271409 49467
1 39215U 13038A   26198.74035243  .00000124  00000-0  00000+0 0  9995
2 39215   2.9999   1.1902 0002251 136.1888  89.5602  1.00271062 44320
1 40296U 14069A   26198.59376705  .00000264  00000-0  00000+0 0  9990
2 40296  63.4493 212.3564 6637407 270.3665  19.8379  2.00598080 85841
1 40931U 15052B   25151.18580782  .00001310  00000-0  87238-4 0  9990
2 40931   6.0001  24.1284 0012872 339.0660  20.8941 14.78806187523042
1 43678U 18084H   26198.71155925  .00000907  00000-0  76984-4 0  9994
2 43678  98.1211  36.2564 0012683  76.7086 283.5550 15.00568417420799
1 43700U 18090A   26198.74055257  .00000135  00000-0  00000+0 0  9991
2 43700   0.0138  73.7247 0002319  84.7094  69.4946  1.00272417 27983
1 43803U 18099AX  26198.62130861  .00009074  00000-0  27313-3 0  9997
2 43803  97.4108 261.5784 0007057 150.8964 209.2673 15.34566538418293
1 44453U 19046A   26197.13163642 -.00000027  00000-0  00000+0 0  9990
2 44453  63.1541  47.0135 7082201 274.9394  14.5884  2.00596454 50921
1 44909U 19096E   26198.57377628  .00000020  00000-0  28150-4 0  9994
2 44909  82.5243 319.5142 0218494  73.4624 289.0355 12.79748887306238
1 45254U 20015A   26198.37717064 -.00000072  00000-0  00000+0 0  9998
2 45254  65.5379 315.7904 6848741 277.3905  15.6919  2.00607676 46899
1 52145U 22030A   26197.87808332  .00000135  00000-0  00000+0 0  9996
2 52145  62.6768 137.5904 6792398 272.8415  17.5970  2.00609170 31622
1 57167U 23091B   26010.59363612  .08733485  25619-5  12458-2 0  9993
2 57167  97.4978  91.1570 0009532 282.8011  77.2220 16.34765267141469
1 59112U 24043Q   26198.67361279  .00024986  00000-0  29878-3 0  9994
2 59112  97.5566 350.9988 0006774  98.7967 261.4057 15.60966407132645
1 67291U 25313AV  26198.62646624  .00007221  00000-0  27495-3 0  9993
2 67291  97.3917 273.5336 0007638 236.6544 123.3965 15.27012118 30635
1 26635U 00080A   21013.46269075 0.00000000  00000-0  00000-0 0    09
2 26635   9.2857  29.8038 0014383 186.3086 173.6859  1.00273100    09
1 34810U 09020A   26118.58802400 0.00000000  00000-0  00000-0 0    05
2 34810   3.0809  80.0043 0003222 250.4250 109.5484  1.00270000    01
1 40614U 15022B   25359.93496764 0.00000000  00000-0  00000-0 0    00
2 40614   0.0160 108.2839 0003453 352.8976   7.0980  1.00270000    04
